{"type": "FeatureCollection", "features": [ {"type": "Feature", "properties": {"norad_id": 40315, "name": "COSMOS 2501 (702K)", "group": "gnss", "lat": -45.33201994093659, "lon": 47.28622798503642, "alt_km": 19089.697650541264, "timestamp": "2025-12-03T10:52:57.693318+00:00", "meta": {"OBJECT_NAME": "COSMOS 2501 (702K)", "OBJECT_ID": "2014-075A", "EPOCH": "2025-11-30T19:17:52.497312", "MEAN_MOTION": 2.13101305, "ECCENTRICITY": 0.00201676, "INCLINATION": 63.6137, "RA_OF_ASC_NODE": 197.2386, "ARG_OF_PERICENTER": 204.7979, "MEAN_ANOMALY": 155.1955, "EPHEMERIS_TYPE": 0, "CLASSIFICATION_TYPE": "U", "NORAD_CAT_ID": 40315, "ELEMENT_SET_NO": 999, "REV_AT_EPOCH": 8562, "BSTAR": 0, "MEAN_MOTION_DOT": 1e-06, "MEAN_MOTION_DDOT": 0}, "tle": {"line1": "1 40315U 14075A   25334.80407983  .00000100  00000+0  00000+0 0  9995", "line2": "2 40315  63.6137 197.2386 0020167 204.7979 155.1955  2.13101305 85629"}}, "geometry": {"type": "Point", "coordinates": [47.28622798503642, -45.33201994093659]}}, {"type": "Feature", "properties": {"norad_id": 40534, "name": "GPS BIIF-9  (PRN 26)", "group": "gnss", "lat": -45.883584158059655, "lon": 82.76348071006916, "alt_km": 20442.958986389614, "timestamp": "2025-12-03T10:52:57.693329+00:00", "meta": {"OBJECT_NAME": "GPS BIIF-9  (PRN 26)", "OBJECT_ID": "2015-013A", "EPOCH": "2025-12-02T02:51:32.874336", "MEAN_MOTION": 2.00563085, "ECCENTRICITY": 0.010658, "INCLINATION": 53.1996, "RA_OF_ASC_NODE": 212.3303, "ARG_OF_PERICENTER": 38.2186, "MEAN_ANOMALY": 322.6251, "EPHEMERIS_TYPE": 0, "CLASSIFICATION_TYPE": "U", "NORAD_CAT_ID": 40534, "ELEMENT_SET_NO": 999, "REV_AT_EPOCH": 7787, "BSTAR": 0, "MEAN_MOTION_DOT": 7.3e-07, "MEAN_MOTION_DDOT": 0}, "tle": {"line1": "1 40534U 15013A   25336.11913049  .00000073  00000+0  00000+0 0  9991", "line2": "2 40534  53.1996 212.3303 0106580  38.2186 322.6251  2.00563085 77872"}}, "geometry": {"type": "Point", "coordinates": [82.76348071006916, -45.883584158059655]}}, {"type": "Feature", "properties": {"norad_id": 40544, "name": "GSAT0203 (GALILEO 7)", "group": "gnss", "lat": 55.98433316378828, "lon": 91.33669757170296, "alt_km": 23234.583348436136, "timestamp": "2025-12-03T10:52:57.693341+00:00", "meta": {"OBJECT_NAME": "GSAT0203 (GALILEO 7)", "OBJECT_ID": "2015-017A", "EPOCH": "2025-12-02T02:53:32.217792", "MEAN_MOTION": 1.70475823, "ECCENTRICITY": 0.00065177, "INCLINATION": 56.8491, "RA_OF_ASC_NODE": 346.9701, "ARG_OF_PERICENTER": 267.4937, "MEAN_ANOMALY": 92.4718, "EPHEMERIS_TYPE": 0, "CLASSIFICATION_TYPE": "U", "NORAD_CAT_ID": 40544, "ELEMENT_SET_NO": 999, "REV_AT_EPOCH": 6584, "BSTAR": 0, "MEAN_MOTION_DOT": -6.2e-07, "MEAN_MOTION_DDOT": 0}, "tle": {"line1": "1 40544U 15017A   25336.12051178 -.00000062  00000+0  00000+0 0  9992", "line2": "2 40544  56.8491 346.9701 0006517 267.4937  92.4718  1.70475823 65840"}}, "geometry": {"type": "Point", "coordinates": [91.33669757170296, 55.98433316378828]}}, {"type": "Feature", "properties": {"norad_id": 40545, "name": "GSAT0204 (GALILEO 8)", "group": "gnss", "lat": -45.6833922255977, "lon": -55.06082625613334, "alt_km": 23213.295980624654, "timestamp": "2025-12-03T10:52:57.693352+00:00", "meta": {"OBJECT_NAME": "GSAT0204 (GALILEO 8)", "OBJECT_ID": "2015-017B", "EPOCH": "2025-12-01T18:56:42.196992", "MEAN_MOTION": 1.70475405, "ECCENTRICITY": 0.00062658, "INCLINATION": 56.854, "RA_OF_ASC_NODE": 346.9967, "ARG_OF_PERICENTER": 260.0885, "MEAN_ANOMALY": 99.8817, "EPHEMERIS_TYPE": 0, "CLASSIFICATION_TYPE": "U", "NORAD_CAT_ID": 40545, "ELEMENT_SET_NO": 999, "REV_AT_EPOCH": 2888, "BSTAR": 0, "MEAN_MOTION_DOT": -6.1e-07, "MEAN_MOTION_DDOT": 0}, "tle": {"line1": "1 40545U 15017B   25335.78937728 -.00000061  00000+0  00000+0 0  9997", "line2": "2 40545  56.8540 346.9967 0006265 260.0885  99.8817  1.70475405 28881"}}, "geometry": {"type": "Point", "coordinates": [-55.06082625613334, -45.6833922255977]}}, {"type": "Feature", "properties": {"norad_id": 40730, "name": "GPS BIIF-10 (PRN 08)", "group": "gnss", "lat": 39.189238281921874, "lon": 59.05292743995669, "alt_km": 20236.23651917209, "timestamp": "2025-12-03T10:52:57.693367+00:00", "meta": {"OBJECT_NAME": "GPS BIIF-10 (PRN 08)", "OBJECT_ID": "2015-033A", "EPOCH": "2025-12-02T06:43:54.109632", "MEAN_MOTION": 2.00566042, "ECCENTRICITY": 0.01103091, "INCLINATION": 54.1399, "RA_OF_ASC_NODE": 275.2033, "ARG_OF_PERICENTER": 26.5495, "MEAN_ANOMALY": 334.0087, "EPHEMERIS_TYPE": 0, "CLASSIFICATION_TYPE": "U", "NORAD_CAT_ID": 40730, "ELEMENT_SET_NO": 999, "REV_AT_EPOCH": 7604, "BSTAR": 0, "MEAN_MOTION_DOT": -3.8e-07, "MEAN_MOTION_DDOT": 0}, "tle": {"line1": "1 40730U 15033A   25336.28048738 -.00000038  00000+0  00000+0 0  9995", "line2": "2 40730  54.1399 275.2033 0110309  26.5495 334.0087  2.00566042 76041"}}, "geometry": {"type": "Point", "coordinates": [59.05292743995669, 39.189238281921874]}}, {"type": "Feature", "properties": {"norad_id": 40748, "name": "BEIDOU-3S M2S (C58)", "group": "gnss", "lat": 53.45793395353603, "lon": 19.403059314862304, "alt_km": 21556.54579729413, "timestamp": "2025-12-03T10:52:57.693380+00:00", "meta": {"OBJECT_NAME": "BEIDOU-3S M2S (C58)", "OBJECT_ID": "2015-037A", "EPOCH": "2025-12-01T04:31:01.292160", "MEAN_MOTION": 1.86229002, "ECCENTRICITY": 0.0012493, "INCLINATION": 55.0491, "RA_OF_ASC_NODE": 308.8604, "ARG_OF_PERICENTER": 267.0141, "MEAN_ANOMALY": 92.8367, "EPHEMERIS_TYPE": 0, "CLASSIFICATION_TYPE": "U", "NORAD_CAT_ID": 40748, "ELEMENT_SET_NO": 999, "REV_AT_EPOCH": 7043, "BSTAR": 0, "MEAN_MOTION_DOT": -5.6e-07, "MEAN_MOTION_DDOT": 0}, "tle": {"line1": "1 40748U 15037A   25335.18820940 -.00000056  00000+0  00000+0 0  9999", "line2": "2 40748  55.0491 308.8604 0012493 267.0141  92.8367  1.86229002 70437"}}, "geometry": {"type": "Point", "coordinates": [19.403059314862304, 53.45793395353603]}}, {"type": "Feature", "properties": {"norad_id": 40749, "name": "BEIDOU-3S M1S (C57)", "group": "gnss", "lat": -52.81863190753556, "lon": -118.4517893195105, "alt_km": 21528.709182011262, "timestamp": "2025-12-03T10:52:57.693393+00:00", "meta": {"OBJECT_NAME": "BEIDOU-3S M1S (C57)", "OBJECT_ID": "2015-037B", "EPOCH": "2025-12-01T22:57:46.412352", "MEAN_MOTION": 1.86253762, "ECCENTRICITY": 0.0003321, "INCLINATION": 55.0451, "RA_OF_ASC_NODE": 308.8236, "ARG_OF_PERICENTER": 355.9906, "MEAN_ANOMALY": 3.9975, "EPHEMERIS_TYPE": 0, "CLASSIFICATION_TYPE": "U", "NORAD_CAT_ID": 40749, "ELEMENT_SET_NO": 999, "REV_AT_EPOCH": 7045, "BSTAR": 0, "MEAN_MOTION_DOT": -6e-07, "MEAN_MOTION_DDOT": 0}, "tle": {"line1": "1 40749U 15037B   25335.95678718 -.00000060  00000+0  00000+0 0  9994", "line2": "2 40749  55.0451 308.8236 0003321 355.9906   3.9975  1.86253762 70451"}}, "geometry": {"type": "Point", "coordinates": [-118.4517893195105, -52.81863190753556]}}, {"type": "Feature", "properties": {"norad_id": 40889, "name": "GSAT0205 (GALILEO 9)", "group": "gnss", "lat": 54.50214598136879, "lon": -54.258859743416345, "alt_km": 23203.77881385998, "timestamp": "2025-12-03T10:52:57.693405+00:00", "meta": {"OBJECT_NAME": "GSAT0205 (GALILEO 9)", "OBJECT_ID": "2015-045A", "EPOCH": "2025-12-02T03:27:57.508704", "MEAN_MOTION": 1.70472886, "ECCENTRICITY": 0.00058353, "INCLINATION": 55.0073, "RA_OF_ASC_NODE": 227.0512, "ARG_OF_PERICENTER": 38.3993, "MEAN_ANOMALY": 321.7247, "EPHEMERIS_TYPE": 0, "CLASSIFICATION_TYPE": "U", "NORAD_CAT_ID": 40889, "ELEMENT_SET_NO": 999, "REV_AT_EPOCH": 6365, "BSTAR": 0, "MEAN_MOTION_DOT": 3.5e-07, "MEAN_MOTION_DDOT": 0}, "tle": {"line1": "1 40889U 15045A   25336.14441561  .00000035  00000+0  00000+0 0  9995", "line2": "2 40889  55.0073 227.0512 0005835  38.3993 321.7247  1.70472886 63655"}}, "geometry": {"type": "Point", "coordinates": [-54.258859743416345, 54.50214598136879]}}, {"type": "Feature", "properties": {"norad_id": 40890, "name": "GSAT0206 (GALILEO 10)", "group": "gnss", "lat": -40.24963895114962, "lon": -169.29755625487226, "alt_km": 23225.71241632484, "timestamp": "2025-12-03T10:52:57.693416+00:00", "meta": {"OBJECT_NAME": "GSAT0206 (GALILEO 10)", "OBJECT_ID": "2015-045B", "EPOCH": "2025-12-01T18:40:58.746144", "MEAN_MOTION": 1.70473031, "ECCENTRICITY": 0.0003438, "INCLINATION": 55.0064, "RA_OF_ASC_NODE": 227.0564, "ARG_OF_PERICENTER": 30.2471, "MEAN_ANOMALY": 329.8532, "EPHEMERIS_TYPE": 0, "CLASSIFICATION_TYPE": "U", "NORAD_CAT_ID": 40890, "ELEMENT_SET_NO": 999, "REV_AT_EPOCH": 6367, "BSTAR": 0, "MEAN_MOTION_DOT": 3.4e-07, "MEAN_MOTION_DDOT": 0}, "tle": {"line1": "1 40890U 15045B   25335.77845771  .00000034  00000+0  00000+0 0  9995", "line2": "2 40890  55.0064 227.0564 0003438  30.2471 329.8532  1.70473031 63674"}}, "geometry": {"type": "Point", "coordinates": [-169.29755625487226, -40.24963895114962]}}, {"type": "Feature", "properties": {"norad_id": 40938, "name": "BEIDOU-3S IGSO-2S (C56)", "group": "gnss", "lat": 45.73264607245169, "lon": -38.00819754867146, "alt_km": 35902.4951114573, "timestamp": "2025-12-03T10:52:57.693428+00:00", "meta": {"OBJECT_NAME": "BEIDOU-3S IGSO-2S (C56)", "OBJECT_ID": "2015-053A", "EPOCH": "2025-12-02T18:11:44.349216", "MEAN_MOTION": 1.00271748, "ECCENTRICITY": 0.0061099, "INCLINATION": 49.5284, "RA_OF_ASC_NODE": 261.1253, "ARG_OF_PERICENTER": 188.6619, "MEAN_ANOMALY": 351.1283, "EPHEMERIS_TYPE": 0, "CLASSIFICATION_TYPE": "U", "NORAD_CAT_ID": 40938, "ELEMENT_SET_NO": 999, "REV_AT_EPOCH": 3738, "BSTAR": 0, "MEAN_MOTION_DOT": -1.58e-06, "MEAN_MOTION_DDOT": 0}, "tle": {"line1": "1 40938U 15053A   25336.75815219 -.00000158  00000+0  00000+0 0  9998", "line2": "2 40938  49.5284 261.1253 0061099 188.6619 351.1283  1.00271748 37386"}}, "geometry": {"type": "Point", "coordinates": [-38.00819754867146, 45.73264607245169]}}]}